{
  "type": "FeatureCollection",
  "features": [
    {
      "type": "Feature",
      "properties": {
        "norad_id": 58647,
        "name": "TIANMU-1 13",
        "group": "weather",
        "lat": 12.89399369957525,
        "lon": -3.5113200003902,
        "alt_km": 492.3169661391612,
        "timestamp": "2025-12-04T09:47:37.166432+00:00",
        "meta_object_name": "TIANMU-1 13",
        "meta_object_id": "2023-205C",
        "meta_epoch": "2025-12-04T00:17:02.912928",
        "meta_mean_motion": 15.2435193,
        "meta_eccentricity": 0.00063622,
        "meta_inclination": 97.3624,
        "meta_ra_of_asc_node": 357.7956,
        "meta_arg_of_pericenter": 306.7238,
        "meta_mean_anomaly": 53.3415,
        "meta_ephemeris_type": 0,
        "meta_classification_type": "U",
        "meta_norad_cat_id": 58647,
        "meta_element_set_no": 999,
        "meta_rev_at_epoch": 10774,
        "meta_bstar": 0.00050630774,
        "meta_mean_motion_dot": 0.00012338,
        "meta_mean_motion_ddot": 0,
        "tle_line1": "1 58647U 23205C   25338.01183927  .00012338  00000+0  50631-3 0  9998",
        "tle_line2": "2 58647  97.3624 357.7956 0006362 306.7238  53.3415 15.24351930107744"
      },
      "geometry": {
        "type": "Point",
        "coordinates": [
          -3.5113200003902,
          12.89399369957525
        ]
      }
    },
    {
      "type": "Feature",
      "properties": {
        "norad_id": 58648,
        "name": "TIANMU-1 14",
        "group": "weather",
        "lat": 73.64432379532563,
        "lon": -156.3434646682554,
        "alt_km": 490.2430814362433,
        "timestamp": "2025-12-04T09:47:37.166443+00:00",
        "meta_object_name": "TIANMU-1 14",
        "meta_object_id": "2023-205D",
        "meta_epoch": "2025-12-03T23:53:00.476160",
        "meta_mean_motion": 15.24336229,
        "meta_eccentricity": 0.00072616,
        "meta_inclination": 97.3557,
        "meta_ra_of_asc_node": 357.136,
        "meta_arg_of_pericenter": 311.1361,
        "meta_mean_anomaly": 48.9249,
        "meta_ephemeris_type": 0,
        "meta_classification_type": "U",
        "meta_norad_cat_id": 58648,
        "meta_element_set_no": 999,
        "meta_rev_at_epoch": 10774,
        "meta_bstar": 0.00049057188,
        "meta_mean_motion_dot": 0.00011948,
        "meta_mean_motion_ddot": 0,
        "tle_line1": "1 58648U 23205D   25337.99514440  .00011948  00000+0  49057-3 0  9999",
        "tle_line2": "2 58648  97.3557 357.1360 0007261 311.1361  48.9249 15.24336229107748"
      },
      "geometry": {
        "type": "Point",
        "coordinates": [
          -156.3434646682554,
          73.64432379532563
        ]
      }
    },
    {
      "type": "Feature",
      "properties": {
        "norad_id": 58660,
        "name": "TIANMU-1 19",
        "group": "weather",
        "lat": -77.93242122838292,
        "lon": -128.21303832668337,
        "alt_km": 487.89508376939375,
        "timestamp": "2025-12-04T09:47:37.166453+00:00",
        "meta_object_name": "TIANMU-1 19",
        "meta_object_id": "2023-208A",
        "meta_epoch": "2025-12-03T23:13:26.152320",
        "meta_mean_motion": 15.2759571,
        "meta_eccentricity": 0.00040772,
        "meta_inclination": 97.4394,
        "meta_ra_of_asc_node": 89.024,
        "meta_arg_of_pericenter": 292.3697,
        "meta_mean_anomaly": 67.711,
        "meta_ephemeris_type": 0,
        "meta_classification_type": "U",
        "meta_norad_cat_id": 58660,
        "meta_element_set_no": 999,
        "meta_rev_at_epoch": 10748,
        "meta_bstar": 0.00063257974,
        "meta_mean_motion_dot": 0.00017019,
        "meta_mean_motion_ddot": 0,
        "tle_line1": "1 58660U 23208A   25337.96766380  .00017019  00000+0  63258-3 0  9999",
        "tle_line2": "2 58660  97.4394  89.0240 0004077 292.3697  67.7110 15.27595710107486"
      },
      "geometry": {
        "type": "Point",
        "coordinates": [
          -128.21303832668337,
          -77.93242122838292
        ]
      }
    },
    {
      "type": "Feature",
      "properties": {
        "norad_id": 58661,
        "name": "TIANMU-1 20",
        "group": "weather",
        "lat": -60.16968820500645,
        "lon": 103.06354205797788,
        "alt_km": 482.145102698194,
        "timestamp": "2025-12-04T09:47:37.166463+00:00",
        "meta_object_name": "TIANMU-1 20",
        "meta_object_id": "2023-208B",
        "meta_epoch": "2025-12-03T23:03:49.713984",
        "meta_mean_motion": 15.28787695,
        "meta_eccentricity": 0.00064566,
        "meta_inclination": 97.4331,
        "meta_ra_of_asc_node": 89.4563,
        "meta_arg_of_pericenter": 302.7771,
        "meta_mean_anomaly": 57.2846,
        "meta_ephemeris_type": 0,
        "meta_classification_type": "U",
        "meta_norad_cat_id": 58661,
        "meta_element_set_no": 999,
        "meta_rev_at_epoch": 10755,
        "meta_bstar": 0.00060069028,
        "meta_mean_motion_dot": 0.00016761,
        "meta_mean_motion_ddot": 0,
        "tle_line1": "1 58661U 23208B   25337.96099206  .00016761  00000+0  60069-3 0  9996",
        "tle_line2": "2 58661  97.4331  89.4563 0006456 302.7771  57.2846 15.28787695107556"
      },
      "geometry": {
        "type": "Point",
        "coordinates": [
          103.06354205797788,
          -60.16968820500645
        ]
      }
    },
    {
      "type": "Feature",
      "properties": {
        "norad_id": 58662,
        "name": "TIANMU-1 21",
        "group": "weather",
        "lat": -48.63244679254572,
        "lon": -96.75759029990685,
        "alt_km": 477.2861965484244,
        "timestamp": "2025-12-04T09:47:37.166474+00:00",
        "meta_object_name": "TIANMU-1 21",
        "meta_object_id": "2023-208C",
        "meta_epoch": "2025-12-03T23:23:07.882656",
        "meta_mean_motion": 15.31256121,
        "meta_eccentricity": 0.00059665,
        "meta_inclination": 97.438,
        "meta_ra_of_asc_node": 91.3391,
        "meta_arg_of_pericenter": 297.0599,
        "meta_mean_anomaly": 63.0033,
        "meta_ephemeris_type": 0,
        "meta_classification_type": "U",
        "meta_norad_cat_id": 58662,
        "meta_element_set_no": 999,
        "meta_rev_at_epoch": 10765,
        "meta_bstar": 0.00066310728,
        "meta_mean_motion_dot": 0.00019981,
        "meta_mean_motion_ddot": 0,
        "tle_line1": "1 58662U 23208C   25337.97439679  .00019981  00000+0  66311-3 0  9993",
        "tle_line2": "2 58662  97.4380  91.3391 0005966 297.0599  63.0033 15.31256121107654"
      },
      "geometry": {
        "type": "Point",
        "coordinates": [
          -96.75759029990685,
          -48.63244679254572
        ]
      }
    },
    {
      "type": "Feature",
      "properties": {
        "norad_id": 58663,
        "name": "TIANMU-1 22",
        "group": "weather",
        "lat": -82.45446363657194,
        "lon": -171.00850194061485,
        "alt_km": 489.9206792735349,
        "timestamp": "2025-12-04T09:47:37.166485+00:00",
        "meta_object_name": "TIANMU-1 22",
        "meta_object_id": "2023-208D",
        "meta_epoch": "2025-12-03T23:11:10.158720",
        "meta_mean_motion": 15.27367861,
        "meta_eccentricity": 0.00030293,
        "meta_inclination": 97.4388,
        "meta_ra_of_asc_node": 89.0854,
        "meta_arg_of_pericenter": 328.7171,
        "meta_mean_anomaly": 31.3888,
        "meta_ephemeris_type": 0,
        "meta_classification_type": "U",
        "meta_norad_cat_id": 58663,
        "meta_element_set_no": 999,
        "meta_rev_at_epoch": 10749,
        "meta_bstar": 0.00059177511,
        "meta_mean_motion_dot": 0.00015803,
        "meta_mean_motion_ddot": 0,
        "tle_line1": "1 58663U 23208D   25337.96608980  .00015803  00000+0  59178-3 0  9998",
        "tle_line2": "2 58663  97.4388  89.0854 0003029 328.7171  31.3888 15.27367861107494"
      },
      "geometry": {
        "type": "Point",
        "coordinates": [
          -171.00850194061485,
          -82.45446363657194
        ]
      }
    },
    {
      "type": "Feature",
      "properties": {
        "norad_id": 58700,
        "name": "TIANMU-1 15",
        "group": "weather",
        "lat": 54.143413014764896,
        "lon": -9.643156688332844,
        "alt_km": 490.7292228995866,
        "timestamp": "2025-12-04T09:47:37.166495+00:00",
        "meta_object_name": "TIANMU-1 15",
        "meta_object_id": "2024-004A",
        "meta_epoch": "2025-12-03T23:47:41.917632",
        "meta_mean_motion": 15.2449429,
        "meta_eccentricity": 0.00057626,
        "meta_inclination": 97.4624,
        "meta_ra_of_asc_node": 159.4927,
        "meta_arg_of_pericenter": 333.5742,
        "meta_mean_anomaly": 26.5201,
        "meta_ephemeris_type": 0,
        "meta_classification_type": "U",
        "meta_norad_cat_id": 58700,
        "meta_element_set_no": 999,
        "meta_rev_at_epoch": 10601,
        "meta_bstar": 0.00054947802,
        "meta_mean_motion_dot": 0.00013452,
        "meta_mean_motion_ddot": 0,
        "tle_line1": "1 58700U 24004A   25337.99145738  .00013452  00000+0  54948-3 0  9993",
        "tle_line2": "2 58700  97.4624 159.4927 0005762 333.5742  26.5201 15.24494290106012"
      },
      "geometry": {
        "type": "Point",
        "coordinates": [
          -9.643156688332844,
          54.143413014764896
        ]
      }
    }
  ]
}